MATS
1 99988U 22123A   22309.05746528  .00000000  00000-0  24354-3 0    77
2 99988  97.6526 311.7765 0012080 308.6344 230.9588 14.92664144000050
